,address,city,district,districtId,districtNCESId,enrollment,fax,gradeRange,gsId,gsRating,lat,lon,name,ncesId,overviewLink,parentRating,phone,ratingsLink,reviewsLink,schoolStatsLink,state,type,website
0,"1290 Bal Harbor Drive, 
San Jose, CA  95122",San Jose,Alum Rock Union Elementary School District,625,0602310,500,(408) 928-7401,K-5,5371,5,37.339794,-121.83675,A. J. Dorsa Elementary School,060231000103,https://www.greatschools.org/california/san-jose/5371-A.-J.-Dorsa-Elementary-School/?s_cid=gsapi,4,(408) 928-7400,https://www.greatschools.org/school/rating.page?state=CA&id=5371&s_cid=gsapi,https://www.greatschools.org/school/parentReviews.page?state=CA&id=5371&s_cid=gsapi,https://www.greatschools.org/modperl/achievement/CA/5371,CA,public,
1,"555 Dana Avenue, 
San Jose, CA  95126",San Jose,San Jose Unified School District,655,0634590,1851,(408) 535-2352,9-12,5675,7,37.329227,-121.92386,Abraham Lincoln High School,063459005696,https://www.greatschools.org/california/san-jose/5675-Abraham-Lincoln-High-School/?s_cid=gsapi,5,(408) 535-6300,https://www.greatschools.org/school/rating.page?state=CA&id=5675&s_cid=gsapi,https://www.greatschools.org/school/parentReviews.page?state=CA&id=5675&s_cid=gsapi,https://www.greatschools.org/modperl/achievement/CA/5675,CA,public,http://www.lincoln.sjusd.k12.ca.us
2,"2999 Ridgemont Drive, 
San Jose, CA  95127",San Jose,Alum Rock Union Elementary School District,625,0602310,562,(408) 928-1901,K-8,14207,6,37.344543,-121.81269,Adelante Dual Language Academy,060231011793,https://www.greatschools.org/california/san-jose/14207-Adelante-Dual-Language-Academy/?s_cid=gsapi,4,(408) 928-1900,https://www.greatschools.org/school/rating.page?state=CA&id=14207&s_cid=gsapi,https://www.greatschools.org/school/parentReviews.page?state=CA&id=14207&s_cid=gsapi,https://www.greatschools.org/modperl/achievement/CA/14207,CA,public,http://www.arusd.org/adelante
3,"820 Steinbeck Drive, 
San Jose, CA  95123",San Jose,San Jose Unified School District,655,0634590,763,(408) 535-2329,K-8,5648,4,37.247303,-121.85641,Allen at Steinbeck School,063459005697,https://www.greatschools.org/california/san-jose/5648-Allen-At-Steinbeck-School/?s_cid=gsapi,4,(408) 535-6205,https://www.greatschools.org/school/rating.page?state=CA&id=5648&s_cid=gsapi,https://www.greatschools.org/school/parentReviews.page?state=CA&id=5648&s_cid=gsapi,https://www.greatschools.org/modperl/achievement/CA/5648,CA,public,http://www.allenatsteinbeck.org/
4,"1295 Dentwood Drive, 
San Jose, CA  95118",San Jose,San Jose Unified School District,655,0634590,389,(408) 535-2328,K-5,5649,4,37.251823,-121.88457,Almaden Elementary School,063459005698,https://www.greatschools.org/california/san-jose/5649-Almaden-Elementary-School/?s_cid=gsapi,4,(408) 535-6207,https://www.greatschools.org/school/rating.page?state=CA&id=5649&s_cid=gsapi,https://www.greatschools.org/school/parentReviews.page?state=CA&id=5649&s_cid=gsapi,https://www.greatschools.org/modperl/achievement/CA/5649,CA,public,http://www.almadenelementary.org/home
5,"5800 Calpine Drive, 
San Jose, CA  95123",San Jose,Oak Grove Elementary School District,650,0627810,453,(408) 224-6964,K-6,5582,5,37.24673,-121.81197,Anderson (Alex) Elementary School,062781009413,https://www.greatschools.org/california/san-jose/5582-Anderson-(Alex)-Elementary-School/?s_cid=gsapi,4,(408) 225-6556,https://www.greatschools.org/school/rating.page?state=CA&id=5582&s_cid=gsapi,https://www.greatschools.org/school/parentReviews.page?state=CA&id=5582&s_cid=gsapi,https://www.greatschools.org/modperl/achievement/CA/5582,CA,public,http://www.davis.ogsd.k12.ca.us/anderson
6,"3200 Senter Road, 
San Jose, CA  95111",San Jose,East Side Union High,632,0611820,2015,(408) 347-4115,9-12,5455,5,37.292698,-121.8306,Andrew P. Hill High School,061182001301,https://www.greatschools.org/california/san-jose/5455-Andrew-P.-Hill-High-School/?s_cid=gsapi,4,(408) 347-4100,https://www.greatschools.org/school/rating.page?state=CA&id=5455&s_cid=gsapi,https://www.greatschools.org/school/parentReviews.page?state=CA&id=5455&s_cid=gsapi,https://www.greatschools.org/modperl/achievement/CA/5455,CA,public,
7,"333 North 33rd Street, 
San Jose, CA  95133",San Jose,San Jose Unified School District,655,0634590,462,(408) 535-6334,K-5,5661,3,37.35661,-121.86444,Anne Darling Elementary School,063459005699,https://www.greatschools.org/california/san-jose/5661-Anne-Darling-Elementary-School/?s_cid=gsapi,3,(408) 535-6209,https://www.greatschools.org/school/rating.page?state=CA&id=5661&s_cid=gsapi,https://www.greatschools.org/school/parentReviews.page?state=CA&id=5661&s_cid=gsapi,https://www.greatschools.org/modperl/achievement/CA/5661,CA,public,http://sjusd.org/darling/
8,"2851 Gay Avenue, 
San Jose, CA  95127",San Jose,Alum Rock Union Elementary School District,625,0602310,628,(408) 928-8901,K-5,17559,4,37.368736,-121.83567,Anthony P. Russo Academy,060231012063,https://www.greatschools.org/california/san-jose/17559-Anthony-P.-Russo-Academy/?s_cid=gsapi,4,(408) 928-8900,https://www.greatschools.org/school/rating.page?state=CA&id=17559&s_cid=gsapi,https://www.greatschools.org/school/parentReviews.page?state=CA&id=17559&s_cid=gsapi,https://www.greatschools.org/modperl/achievement/CA/17559,CA,public,http://www.arusd.org
9,"1944 Flint Avenue, 
San Jose, CA  95148",San Jose,Mt. Pleasant Elementary,647,0626400,590,(408) 223-6959,6-8,5569,3,37.347134,-121.80145,August Boeger Middle School,062640003987,https://www.greatschools.org/california/san-jose/5569-August-Boeger-Middle-School/?s_cid=gsapi,3,(408) 223-3770,https://www.greatschools.org/school/rating.page?state=CA&id=5569&s_cid=gsapi,https://www.greatschools.org/school/parentReviews.page?state=CA&id=5569&s_cid=gsapi,https://www.greatschools.org/modperl/achievement/CA/5569,CA,public,http://www.asd.com
10,"1840 Harris Avenue, 
San Jose, CA  95124",San Jose,Cambrian,627,0607140,665,(408) 377-8648,K-5,5405,6,37.278736,-121.92195,Bagby Elementary School,060714000650,https://www.greatschools.org/california/san-jose/5405-Bagby-Elementary-School/?s_cid=gsapi,4,(408) 377-3882,https://www.greatschools.org/school/rating.page?state=CA&id=5405&s_cid=gsapi,https://www.greatschools.org/school/parentReviews.page?state=CA&id=5405&s_cid=gsapi,https://www.greatschools.org/modperl/achievement/CA/5405,CA,public,www.cambriansd.org
11,"280 Martinvale Lane, 
San Jose, CA  95119",San Jose,Oak Grove Elementary School District,650,0627810,396,(408) 224-8506,K-6,5583,5,37.22409,-121.78427,Baldwin (Julia) Elementary School,062781004204,https://www.greatschools.org/california/san-jose/5583-Baldwin-(Julia)-Elementary-School/?s_cid=gsapi,4,(408) 226-3370,https://www.greatschools.org/school/rating.page?state=CA&id=5583&s_cid=gsapi,https://www.greatschools.org/school/parentReviews.page?state=CA&id=5583&s_cid=gsapi,https://www.greatschools.org/modperl/achievement/CA/5583,CA,public,
12,"500 Rough And Ready Road, 
San Jose, CA  95133",San Jose,Alum Rock Union Elementary School District,625,0602310,420,(408) 928-8401,PK-8,5384,3,37.37495,-121.84331,Ben Painter Elementary School,060231008782,https://www.greatschools.org/california/san-jose/5384-Ben-Painter-Elementary-School/?s_cid=gsapi,3,(408) 928-8400,https://www.greatschools.org/school/rating.page?state=CA&id=5384&s_cid=gsapi,https://www.greatschools.org/school/parentReviews.page?state=CA&id=5384&s_cid=gsapi,https://www.greatschools.org/modperl/achievement/CA/5384,CA,public,http://www.arusd.org/
13,"6610 San Ignacio Avenue, 
San Jose, CA  95119",San Jose,Oak Grove Elementary School District,650,0627810,807,(408) 578-7367,7-8,5584,7,37.22708,-121.791,Bernal Intermediate School,062781004205,https://www.greatschools.org/california/san-jose/5584-Bernal-Intermediate-School/?s_cid=gsapi,4,(408) 578-5731,https://www.greatschools.org/school/rating.page?state=CA&id=5584&s_cid=gsapi,https://www.greatschools.org/school/parentReviews.page?state=CA&id=5584&s_cid=gsapi,https://www.greatschools.org/modperl/achievement/CA/5584,CA,public,http://www.Sccoe.k12.ca.us/bernal/Home.html
14,"1590 Dry Creek Road, 
San Jose, CA  95125",San Jose,San Jose Unified School District,655,0634590,800,(408) 448-2507,PK-5,5651,9,37.288143,-121.90581,Booksin Elementary School,063459005702,https://www.greatschools.org/california/san-jose/5651-Booksin-Elementary-School/?s_cid=gsapi,4,(408) 535-6213,https://www.greatschools.org/school/rating.page?state=CA&id=5651&s_cid=gsapi,https://www.greatschools.org/school/parentReviews.page?state=CA&id=5651&s_cid=gsapi,https://www.greatschools.org/modperl/achievement/CA/5651,CA,public,http://booksin.ca.campusgrid.net/home
15,"1570 Branham Lane, 
San Jose, CA  95118",San Jose,Campbell Union High,630,0607230,1468,(408) 267-2676,9-12,11149,8,37.254597,-121.89959,Branham High School,060723008350,https://www.greatschools.org/california/san-jose/11149-Branham-High-School/?s_cid=gsapi,3,(408) 626-3407,https://www.greatschools.org/school/rating.page?state=CA&id=11149&s_cid=gsapi,https://www.greatschools.org/school/parentReviews.page?state=CA&id=11149&s_cid=gsapi,https://www.greatschools.org/modperl/achievement/CA/11149,CA,public,www.branham.cuhsd.org
16,"7050 Bret Harte Drive, 
San Jose, CA  95120",San Jose,San Jose Unified School District,655,0634590,1215,(408) 927-0698,6-8,5670,8,37.209404,-121.83818,Bret Harte Middle School,063459005703,https://www.greatschools.org/california/san-jose/5670-Bret-Harte-Middle-School/?s_cid=gsapi,4,(408) 535-6270,https://www.greatschools.org/school/rating.page?state=CA&id=5670&s_cid=gsapi,https://www.greatschools.org/school/parentReviews.page?state=CA&id=5670&s_cid=gsapi,https://www.greatschools.org/modperl/achievement/CA/5670,CA,public,http://www.sjusd.k12.ca.us/sites/mid/BretHarte
17,"1781 Olivetree Drive, 
San Jose, CA  95131",San Jose,Berryessa Union Elementary,626,0604800,515,(408) 923-1635,K-5,5392,6,37.398533,-121.88003,Brooktree Elementary School,060480000457,https://www.greatschools.org/california/san-jose/5392-Brooktree-Elementary-School/?s_cid=gsapi,4,(408) 923-1910,https://www.greatschools.org/school/rating.page?state=CA&id=5392&s_cid=gsapi,https://www.greatschools.org/school/parentReviews.page?state=CA&id=5392&s_cid=gsapi,https://www.greatschools.org/modperl/achievement/CA/5392,CA,public,http://brooktree.berryessa.k12.ca.us/
18,"3799 Cadwallader Avenue, 
San Jose, CA  95121",San Jose,Evergreen Elementary,633,0613140,366,(408) 223-4839,K-6,5467,8,37.30653,-121.78867,Cadwallader Elementary School,061314001490,https://www.greatschools.org/california/san-jose/5467-Cadwallader-Elementary-School/?s_cid=gsapi,4,(408) 270-4950,https://www.greatschools.org/school/rating.page?state=CA&id=5467&s_cid=gsapi,https://www.greatschools.org/school/parentReviews.page?state=CA&id=5467&s_cid=gsapi,https://www.greatschools.org/modperl/achievement/CA/5467,CA,public,http://www.do.esd.k12.ca.us/Cadwallader/cad.html
19,"420 Calero Avenue, 
San Jose, CA  95123",San Jose,East Side Union High,632,0611820,339,,10-12,31076,2,37.24132,-121.82663,Calero High,061182013019,https://www.greatschools.org/california/san-jose/31076-Calero-High/?s_cid=gsapi,,(408) 347-7600,https://www.greatschools.org/school/rating.page?state=CA&id=31076&s_cid=gsapi,https://www.greatschools.org/school/parentReviews.page?state=CA&id=31076&s_cid=gsapi,https://www.greatschools.org/modperl/achievement/CA/31076,CA,public,www.esuhsd.org
20,"880 Wren Drive, 
San Jose, CA  95125",San Jose,San Jose Unified School District,655,0634590,373,(408) 265-4126,K-5,11871,5,37.284744,-121.87653,Canoas Elementary School,063459008634,https://www.greatschools.org/california/san-jose/11871-Canoas-Elementary-School/?s_cid=gsapi,3,(408) 535-6391,https://www.greatschools.org/school/rating.page?state=CA&id=11871&s_cid=gsapi,https://www.greatschools.org/school/parentReviews.page?state=CA&id=11871&s_cid=gsapi,https://www.greatschools.org/modperl/achievement/CA/11871,CA,public,www.sjusd.k12.ca.us
21,"3200 Water Street, 
San Jose, CA  95111",San Jose,Franklin-Mckinley Elementary School District,634,0614370,652,(408) 363-5669,K-6,5486,3,37.28865,-121.83956,Captain Jason M. Dahl Elementary School,061437001646,https://www.greatschools.org/california/san-jose/5486-Captain-Jason-M.-Dahl-Elementary-School/?s_cid=gsapi,3,(408) 363-5650,https://www.greatschools.org/school/rating.page?state=CA&id=5486&s_cid=gsapi,https://www.greatschools.org/school/parentReviews.page?state=CA&id=5486&s_cid=gsapi,https://www.greatschools.org/modperl/achievement/CA/5486,CA,public,http://www.dahl.fmsd.k12.ca.us
22,"2421 Carlton Avenue, 
San Jose, CA  95124",San Jose,Union Elementary,657,0640320,705,(408) 356-5993,K-5,5712,9,37.247437,-121.94574,Carlton Elementary School,064032006669,https://www.greatschools.org/california/san-jose/5712-Carlton-Elementary-School/?s_cid=gsapi,4,(408) 356-1141,https://www.greatschools.org/school/rating.page?state=CA&id=5712&s_cid=gsapi,https://www.greatschools.org/school/parentReviews.page?state=CA&id=5712&s_cid=gsapi,https://www.greatschools.org/modperl/achievement/CA/5712,CA,public,http://www.unionsd.org/carlton
23,"3701 Rue Mirassou Drive, 
San Jose, CA  95148",San Jose,Evergreen Elementary,633,0613140,807,(408) 223-4567,K-6,13990,9,37.321712,-121.76937,Carolyn A. Clark Elementary School,061314011451,https://www.greatschools.org/california/san-jose/13990-Carolyn-A.-Clark-Elementary-School/?s_cid=gsapi,5,(408) 223-4560,https://www.greatschools.org/school/rating.page?state=CA&id=13990&s_cid=gsapi,https://www.greatschools.org/school/parentReviews.page?state=CA&id=13990&s_cid=gsapi,https://www.greatschools.org/modperl/achievement/CA/13990,CA,public,www.eesd.org
24,"6384 Leyland Park Drive, 
San Jose, CA  95120",San Jose,San Jose Unified School District,655,0634590,1222,(408) 268-4489,6-8,5656,6,37.22148,-121.88194,Castillero Middle School,063459005707,https://www.greatschools.org/california/san-jose/5656-Castillero-Middle-School/?s_cid=gsapi,4,(408) 535-6385,https://www.greatschools.org/school/rating.page?state=CA&id=5656&s_cid=gsapi,https://www.greatschools.org/school/parentReviews.page?state=CA&id=5656&s_cid=gsapi,https://www.greatschools.org/modperl/achievement/CA/5656,CA,public,http://www.sjusd.k12.ca.us/sites/mid/Castillero
25,"2702 Sugar Plum Drive, 
San Jose, CA  95148",San Jose,Evergreen Elementary,633,0613140,742,(408) 223-4852,K-6,5468,5,37.33115,-121.79364,Cedar Grove Elementary School,061314001491,https://www.greatschools.org/california/san-jose/5468-Cedar-Grove-Elementary-School/?s_cid=gsapi,4,(408) 270-4958,https://www.greatschools.org/school/rating.page?state=CA&id=5468&s_cid=gsapi,https://www.greatschools.org/school/parentReviews.page?state=CA&id=5468&s_cid=gsapi,https://www.greatschools.org/modperl/achievement/CA/5468,CA,public,
26,"2000 Kammerer Avenue, 
San Jose, CA  95116",San Jose,Alum Rock Union Elementary School District,625,0602310,462,(408) 928-7301,K-5,5369,3,37.350258,-121.84499,Cesar Chavez Elementary School,060231000111,https://www.greatschools.org/california/san-jose/5369-Cesar-Chavez-Elementary-School/?s_cid=gsapi,2,(408) 928-7300,https://www.greatschools.org/school/rating.page?state=CA&id=5369&s_cid=gsapi,https://www.greatschools.org/school/parentReviews.page?state=CA&id=5369&s_cid=gsapi,https://www.greatschools.org/modperl/achievement/CA/5369,CA,public,
27,"3276 Cortona Drive, 
San Jose, CA  95135",San Jose,Evergreen Elementary,633,0613140,1124,(408) 270-6916,7-8,5469,9,37.312355,-121.76801,Chaboya Middle School,061314010321,https://www.greatschools.org/california/san-jose/5469-Chaboya-Middle-School/?s_cid=gsapi,4,(408) 270-6900,https://www.greatschools.org/school/rating.page?state=CA&id=5469&s_cid=gsapi,https://www.greatschools.org/school/parentReviews.page?state=CA&id=5469&s_cid=gsapi,https://www.greatschools.org/modperl/achievement/CA/5469,CA,public,http://chaboya.eesd.org/
28,"2550 Greengate Drive, 
San Jose, CA  95132",San Jose,Berryessa Union Elementary,626,0604800,350,(408) 258-8356,PK-5,5393,5,37.3944,-121.86508,Cherrywood Elementary School,060480000458,https://www.greatschools.org/california/san-jose/5393-Cherrywood-Elementary-School/?s_cid=gsapi,4,(408) 923-1915,https://www.greatschools.org/school/rating.page?state=CA&id=5393&s_cid=gsapi,https://www.greatschools.org/school/parentReviews.page?state=CA&id=5393&s_cid=gsapi,https://www.greatschools.org/modperl/achievement/CA/5393,CA,public,http://cherrywood.berryessa.k12.ca.us/
29,"565 Coyote Road, 
San Jose, CA  95111",San Jose,Oak Grove Elementary School District,650,0627810,463,(408) 224-8265,K-8,5586,4,37.279354,-121.81761,Christopher Elementary School,062781004208,https://www.greatschools.org/california/san-jose/5586-Christopher-Elementary-School/?s_cid=gsapi,3,(408) 227-8550,https://www.greatschools.org/school/rating.page?state=CA&id=5586&s_cid=gsapi,https://www.greatschools.org/school/parentReviews.page?state=CA&id=5586&s_cid=gsapi,https://www.greatschools.org/modperl/achievement/CA/5586,CA,public,http://christopher.ogsd.net/
30,"1970 Cinderella Lane, 
San Jose, CA  95116",San Jose,Alum Rock Union Elementary School District,625,0602310,328,(408) 928-7101,K-5,5367,1,37.344124,-121.84038,Clyde Arbuckle Elementary School,060231000100,https://www.greatschools.org/california/san-jose/5367-Clyde-Arbuckle-Elementary-School/?s_cid=gsapi,3,(408) 928-7100,https://www.greatschools.org/school/rating.page?state=CA&id=5367&s_cid=gsapi,https://www.greatschools.org/school/parentReviews.page?state=CA&id=5367&s_cid=gsapi,https://www.greatschools.org/modperl/achievement/CA/5367,CA,public,
31,"1720 Hopkins Drive, 
San Jose, CA  95122",San Jose,Alum Rock Union Elementary School District,625,0602310,497,(408) 928-7501,6-8,5372,3,37.33786,-121.82958,Clyde L. Fischer Middle School,060231000104,https://www.greatschools.org/california/san-jose/5372-Clyde-L.-Fischer-Middle-School/?s_cid=gsapi,4,(408) 928-7500,https://www.greatschools.org/school/rating.page?state=CA&id=5372&s_cid=gsapi,https://www.greatschools.org/school/parentReviews.page?state=CA&id=5372&s_cid=gsapi,https://www.greatschools.org/modperl/achievement/CA/5372,CA,public,http://www.arusd.org/schools/Fischer/FischWelcome.html
32,"1855 Lucretia Avenue, 
San Jose, CA  95122",San Jose,Franklin-Mckinley Elementary School District,634,0614370,141,,7-8,31093,9,37.3204,-121.84813,College Connection Academy,061437013199,https://www.greatschools.org/california/san-jose/31093-College-Connection-Academy/?s_cid=gsapi,,(408) 347-4827,https://www.greatschools.org/school/rating.page?state=CA&id=31093&s_cid=gsapi,https://www.greatschools.org/school/parentReviews.page?state=CA&id=31093&s_cid=gsapi,https://www.greatschools.org/modperl/achievement/CA/31093,CA,public,http://fmsd.org
33,"5140 Country Lane, 
San Jose, CA  95129",San Jose,Moreland School District,646,0625770,684,(408) 252-4576,K-5,5563,8,37.298496,-121.99193,Country Lane Elementary School,062577003853,https://www.greatschools.org/california/san-jose/5563-Country-Lane-Elementary-School/?s_cid=gsapi,4,(408) 874-3400,https://www.greatschools.org/school/rating.page?state=CA&id=5563&s_cid=gsapi,https://www.greatschools.org/school/parentReviews.page?state=CA&id=5563&s_cid=gsapi,https://www.greatschools.org/modperl/achievement/CA/5563,CA,public,www.countrylaneschool.org/
34,"3975 Mira Loma, 
San Jose, CA  95111",San Jose,Franklin-Mckinley Elementary School District,634,0614370,516,(408) 363-5642,4-8,5492,3,37.28235,-121.83026,Daniel Lairon Elementary School,061437001651,https://www.greatschools.org/california/san-jose/5492-Daniel-Lairon-Elementary-School/?s_cid=gsapi,4,(408) 363-5775,https://www.greatschools.org/school/rating.page?state=CA&id=5492&s_cid=gsapi,https://www.greatschools.org/school/parentReviews.page?state=CA&id=5492&s_cid=gsapi,https://www.greatschools.org/modperl/achievement/CA/5492,CA,public,http://fmsd.k12.ca.us/7trees
35,"5575 Dartmouth Drive, 
San Jose, CA  95118",San Jose,Union Elementary,657,0640320,859,(408) 264-9332,6-8,5713,8,37.23997,-121.89648,Dartmouth Middle School,064032006671,https://www.greatschools.org/california/san-jose/5713-Dartmouth-Middle-School/?s_cid=gsapi,4,(408) 264-1122,https://www.greatschools.org/school/rating.page?state=CA&id=5713&s_cid=gsapi,https://www.greatschools.org/school/parentReviews.page?state=CA&id=5713&s_cid=gsapi,https://www.greatschools.org/modperl/achievement/CA/5713,CA,public,http://dartmouth.unionsd.org/
36,"5035 Edenview Drive, 
San Jose, CA  95111",San Jose,Oak Grove Elementary School District,650,0627810,664,(408) 224-8957,7-8,5587,4,37.266415,-121.81188,Davis (Caroline) Intermediate School,062781004209,https://www.greatschools.org/california/san-jose/5587-Davis-(Caroline)-Intermediate-School/?s_cid=gsapi,4,(408) 227-0616,https://www.greatschools.org/school/rating.page?state=CA&id=5587&s_cid=gsapi,https://www.greatschools.org/school/parentReviews.page?state=CA&id=5587&s_cid=gsapi,https://www.greatschools.org/modperl/achievement/CA/5587,CA,public,http://www.davis.ogsd.k12.ca.us
37,"1224 Del Mar Avenue, 
San Jose, CA  95128",San Jose,Campbell Union High,630,0607230,1108,(408) 295-9476,9-12,5424,5,37.303253,-121.93034,Del Mar High School,060723000665,https://www.greatschools.org/california/san-jose/5424-Del-Mar-High-School/?s_cid=gsapi,4,(408) 626-3403,https://www.greatschools.org/school/rating.page?state=CA&id=5424&s_cid=gsapi,https://www.greatschools.org/school/parentReviews.page?state=CA&id=5424&s_cid=gsapi,https://www.greatschools.org/modperl/achievement/CA/5424,CA,public,www.delmar.cuhsd.org
38,"5345 Avenida Almendros, 
San Jose, CA  95123",San Jose,Oak Grove Elementary School District,650,0627810,507,(408) 224-8748,K-6,5588,4,37.257355,-121.83603,Del Roble Elementary School,062781004210,https://www.greatschools.org/california/san-jose/5588-Del-Roble-Elementary-School/?s_cid=gsapi,4,(408) 225-5675,https://www.greatschools.org/school/rating.page?state=CA&id=5588&s_cid=gsapi,https://www.greatschools.org/school/parentReviews.page?state=CA&id=5588&s_cid=gsapi,https://www.greatschools.org/modperl/achievement/CA/5588,CA,public,http://www.davis.ogsd.k12.ca.us/delroble
39,"1824 Daytona Drive, 
San Jose, CA  95122",San Jose,Alum Rock Union Elementary School District,625,0602310,548,(408) 928-8201,K-5,5380,5,37.335167,-121.8277,Donald J. Meyer Elementary School,060231000113,https://www.greatschools.org/california/san-jose/5380-Donald-J.-Meyer-Elementary-School/?s_cid=gsapi,3,(408) 928-8200,https://www.greatschools.org/school/rating.page?state=CA&id=5380&s_cid=gsapi,https://www.greatschools.org/school/parentReviews.page?state=CA&id=5380&s_cid=gsapi,https://www.greatschools.org/modperl/achievement/CA/5380,CA,public,
40,"1460 Colt Way, 
San Jose, CA  95121",San Jose,Evergreen Elementary,633,0613140,529,(408) 223-4536,K-6,5470,4,37.30112,-121.80986,Dove Hill Elementary School,061314009366,https://www.greatschools.org/california/san-jose/5470-Dove-Hill-Elementary-School/?s_cid=gsapi,4,(408) 270-4964,https://www.greatschools.org/school/rating.page?state=CA&id=5470&s_cid=gsapi,https://www.greatschools.org/school/parentReviews.page?state=CA&id=5470&s_cid=gsapi,https://www.greatschools.org/modperl/achievement/CA/5470,CA,public,
41,"4835 Doyle Road, 
San Jose, CA  95129",San Jose,Moreland School District,646,0625770,1027,(408) 253-7321,K-8,5565,8,37.303364,-121.98663,Easterbrook Discovery,062577003854,https://www.greatschools.org/california/san-jose/5565-Easterbrook-Discovery/?s_cid=gsapi,4,(408) 874-3500,https://www.greatschools.org/school/rating.page?state=CA&id=5565&s_cid=gsapi,https://www.greatschools.org/school/parentReviews.page?state=CA&id=5565&s_cid=gsapi,https://www.greatschools.org/modperl/achievement/CA/5565,CA,public,http://eds-moreland-ca.schoolloop.com/
42,"285 Azucar Avenue, 
San Jose, CA  95111",San Jose,Oak Grove Elementary School District,650,0627810,566,(408) 224-8732,K-6,5589,3,37.261543,-121.80266,Edenvale Elementary School,062781004212,https://www.greatschools.org/california/san-jose/5589-Edenvale-Elementary-School/?s_cid=gsapi,3,(408) 227-7060,https://www.greatschools.org/school/rating.page?state=CA&id=5589&s_cid=gsapi,https://www.greatschools.org/school/parentReviews.page?state=CA&id=5589&s_cid=gsapi,https://www.greatschools.org/modperl/achievement/CA/5589,CA,public,http://www.garlic.com/~lullah/edenvale/edv.html
43,"1060 East Empire Street, 
San Jose, CA  95112",San Jose,San Jose Unified School District,655,0634590,438,(408) 297-6914,K-5,5662,4,37.354664,-121.87618,Empire Gardens Elementary School,063459005711,https://www.greatschools.org/california/san-jose/5662-Empire-Gardens-Elementary-School/?s_cid=gsapi,4,(408) 535-6221,https://www.greatschools.org/school/rating.page?state=CA&id=5662&s_cid=gsapi,https://www.greatschools.org/school/parentReviews.page?state=CA&id=5662&s_cid=gsapi,https://www.greatschools.org/modperl/achievement/CA/5662,CA,public,http://sjusd.org/empire-gardens/
44,"1610 Bird Avenue, 
San Jose, CA  95125",San Jose,San Jose Unified School District,655,0634590,505,,K-5,12074,3,37.303505,-121.88689,Ernesto Galarza Elementary School,063459010411,https://www.greatschools.org/california/san-jose/12074-Ernesto-Galarza-Elementary-School/?s_cid=gsapi,3,(408) 535-6671,https://www.greatschools.org/school/rating.page?state=CA&id=12074&s_cid=gsapi,https://www.greatschools.org/school/parentReviews.page?state=CA&id=12074&s_cid=gsapi,https://www.greatschools.org/modperl/achievement/CA/12074,CA,public,www.sjusd.k12.ca.us
45,"3010 Fowler Road, 
San Jose, CA  95135",San Jose,Evergreen Elementary,633,0613140,800,(408) 270-4968,K-6,5471,9,37.31055,-121.77794,Evergreen Elementary School,061314001492,https://www.greatschools.org/california/san-jose/5471-Evergreen-Elementary-School/?s_cid=gsapi,4,(408) 270-4966,https://www.greatschools.org/school/rating.page?state=CA&id=5471&s_cid=gsapi,https://www.greatschools.org/school/parentReviews.page?state=CA&id=5471&s_cid=gsapi,https://www.greatschools.org/modperl/achievement/CA/5471,CA,public,http://ev.schoolloop.com/
46,"3300 Quimby Road, 
San Jose, CA  95148",San Jose,East Side Union High,632,0611820,2715,(400) 347-7005,9-12,12237,10,37.323933,-121.77853,Evergreen Valley High School,061182010665,https://www.greatschools.org/california/san-jose/12237-Evergreen-Valley-High-School/?s_cid=gsapi,3,(408) 347-7000,https://www.greatschools.org/school/rating.page?state=CA&id=12237&s_cid=gsapi,https://www.greatschools.org/school/parentReviews.page?state=CA&id=12237&s_cid=gsapi,https://www.greatschools.org/modperl/achievement/CA/12237,CA,public,https://evhs.schoolloop.com/cms/page_view?d=x&amp;piid=&amp;vpid=1211910078964
47,"420 Tully Road, 
San Jose, CA  95111",San Jose,Franklin-Mckinley Elementary School District,634,0614370,796,(408) 283-6060,K-6,5484,6,37.305473,-121.8511,Franklin Elementary School,061437001644,https://www.greatschools.org/california/san-jose/5484-Franklin-Elementary-School/?s_cid=gsapi,4,(408) 283-6375,https://www.greatschools.org/school/rating.page?state=CA&id=5484&s_cid=gsapi,https://www.greatschools.org/school/parentReviews.page?state=CA&id=5484&s_cid=gsapi,https://www.greatschools.org/modperl/achievement/CA/5484,CA,public,http://www.franklin.fmsd.k12.ca.us
48,"530 Gettysburg Drive, 
San Jose, CA  95123",San Jose,Oak Grove Elementary School District,650,0627810,666,(408) 224-8932,K-8,5590,6,37.247536,-121.83707,Frost (Earl) Elementary School,062781004213,https://www.greatschools.org/california/san-jose/5590-Frost-(Earl)-Elementary-School/?s_cid=gsapi,4,(408) 225-1881,https://www.greatschools.org/school/rating.page?state=CA&id=5590&s_cid=gsapi,https://www.greatschools.org/school/parentReviews.page?state=CA&id=5590&s_cid=gsapi,https://www.greatschools.org/modperl/achievement/CA/5590,CA,public,
49,"725 Hellyer Avenue, 
San Jose, CA  95111",San Jose,Franklin-Mckinley Elementary School District,634,0614370,434,(408) 363-5761,K-6,5485,6,37.28441,-121.81964,G. W. Hellyer Elementary School,061437001645,https://www.greatschools.org/california/san-jose/5485-G.-W.-Hellyer-Elementary-School/?s_cid=gsapi,3,(408) 363-5750,https://www.greatschools.org/school/rating.page?state=CA&id=5485&s_cid=gsapi,https://www.greatschools.org/school/parentReviews.page?state=CA&id=5485&s_cid=gsapi,https://www.greatschools.org/modperl/achievement/CA/5485,CA,public,http://www.fmsd.k12.ca.us
50,"502 Illinois Avenue, 
San Jose, CA  95125",San Jose,San Jose Unified School District,655,0634590,477,(408) 535-2358,K-5,5664,2,37.32137,-121.89589,Gardner Elementary School,063459005713,https://www.greatschools.org/california/san-jose/5664-Gardner-Elementary-School/?s_cid=gsapi,3,(408) 535-6225,https://www.greatschools.org/school/rating.page?state=CA&id=5664&s_cid=gsapi,https://www.greatschools.org/school/parentReviews.page?state=CA&id=5664&s_cid=gsapi,https://www.greatschools.org/modperl/achievement/CA/5664,CA,public,http://sjusd.org/gardner/
51,"3750 Gleason Avenue, 
San Jose, CA  95130",San Jose,Moreland School District,646,0625770,652,(408) 241-4932,K-5,5567,7,37.296448,-121.96739,George C. Payne Elementary School,062577003856,https://www.greatschools.org/california/san-jose/5567-George-C.-Payne-Elementary-School/?s_cid=gsapi,4,(408) 874-3700,https://www.greatschools.org/school/rating.page?state=CA&id=5567&s_cid=gsapi,https://www.greatschools.org/school/parentReviews.page?state=CA&id=5567&s_cid=gsapi,https://www.greatschools.org/modperl/achievement/CA/5567,CA,public,http://payne-moreland-ca.schoolloop.com/
52,"1865 Monrovia Drive, 
San Jose, CA  95122",San Jose,Evergreen Elementary,633,0613140,916,(408) 270-5462,7-8,5474,4,37.31425,-121.81263,George V. Leyva Intermediate School,061314001493,https://www.greatschools.org/california/san-jose/5474-George-V.-Leyva-Intermediate-School/?s_cid=gsapi,4,(408) 270-4993,https://www.greatschools.org/school/rating.page?state=CA&id=5474&s_cid=gsapi,https://www.greatschools.org/school/parentReviews.page?state=CA&id=5474&s_cid=gsapi,https://www.greatschools.org/modperl/achievement/CA/5474,CA,public,
53,"511 Cozy Drive, 
San Jose, CA  95123",San Jose,Oak Grove Elementary School District,650,0627810,668,(408) 224-8386,K-6,5591,6,37.232574,-121.8234,Glider Elementary School,062781004214,https://www.greatschools.org/california/san-jose/5591-Glider-Elementary-School/?s_cid=gsapi,4,(408) 227-1505,https://www.greatschools.org/school/rating.page?state=CA&id=5591&s_cid=gsapi,https://www.greatschools.org/school/parentReviews.page?state=CA&id=5591&s_cid=gsapi,https://www.greatschools.org/modperl/achievement/CA/5591,CA,public,http://gliderschool.net/
54,"470 East Jackson Street, 
San Jose, CA  95112",San Jose,San Jose Unified School District,655,0634590,587,(408) 535-6061,K-5,5665,3,37.35166,-121.8886,Grant Elementary School,063459005714,https://www.greatschools.org/california/san-jose/5665-Grant-Elementary-School/?s_cid=gsapi,3,(408) 535-6227,https://www.greatschools.org/school/rating.page?state=CA&id=5665&s_cid=gsapi,https://www.greatschools.org/school/parentReviews.page?state=CA&id=5665&s_cid=gsapi,https://www.greatschools.org/modperl/achievement/CA/5665,CA,public,
55,"6982 Shearwater Drive, 
San Jose, CA  95120",San Jose,San Jose Unified School District,655,0634590,687,(408) 323-1034,K-5,5666,10,37.210663,-121.83777,Graystone Elementary School,063459005715,https://www.greatschools.org/california/san-jose/5666-Graystone-Elementary-School/?s_cid=gsapi,5,(408) 535-6317,https://www.greatschools.org/school/rating.page?state=CA&id=5666&s_cid=gsapi,https://www.greatschools.org/school/parentReviews.page?state=CA&id=5666&s_cid=gsapi,https://www.greatschools.org/modperl/achievement/CA/5666,CA,public,http://www.sjusd.org/graystone
56,"6044 Vera Cruz Drive, 
San Jose, CA  95120",San Jose,Union Elementary,657,0640320,558,(408) 265-6914,K-5,5714,9,37.228756,-121.89666,Guadalupe Elementary School,064032006672,https://www.greatschools.org/california/san-jose/5714-Guadalupe-Elementary-School/?s_cid=gsapi,4,(408) 268-1030,https://www.greatschools.org/school/rating.page?state=CA&id=5714&s_cid=gsapi,https://www.greatschools.org/school/parentReviews.page?state=CA&id=5714&s_cid=gsapi,https://www.greatschools.org/modperl/achievement/CA/5714,CA,public,http://www.unionsd.org
57,"620 Gaundabert Lane, 
San Jose, CA  95136",San Jose,San Jose Unified School District,655,0634590,1149,(408) 224-2209,9-12,5667,5,37.258255,-121.85268,Gunderson High School,063459005716,https://www.greatschools.org/california/san-jose/5667-Gunderson-High-School/?s_cid=gsapi,4,(408) 535-6340,https://www.greatschools.org/school/rating.page?state=CA&id=5667&s_cid=gsapi,https://www.greatschools.org/school/parentReviews.page?state=CA&id=5667&s_cid=gsapi,https://www.greatschools.org/modperl/achievement/CA/5667,CA,public,http://Gunderson.sjusd.K12.ca.us
58,"4845 Bucknall Road, 
San Jose, CA  95130",San Jose,Moreland School District,646,0625770,722,(408) 379-3726,K-5,5561,8,37.283382,-121.98712,Gussie M. Baker Elementary School,062577003857,https://www.greatschools.org/california/san-jose/5561-Gussie-M.-Baker-Elementary-School/?s_cid=gsapi,4,(408) 874-3200,https://www.greatschools.org/school/rating.page?state=CA&id=5561&s_cid=gsapi,https://www.greatschools.org/school/parentReviews.page?state=CA&id=5561&s_cid=gsapi,https://www.greatschools.org/modperl/achievement/CA/5561,CA,public,http://https://baker-moreland-ca.schoolloop.com/
59,"1290 Kimberly Drive, 
San Jose, CA  95118",San Jose,San Jose Unified School District,655,0634590,729,(408) 723-8225,K-5,5669,7,37.269695,-121.88392,Hacienda Science/Environmental Magnet School,063459005742,https://www.greatschools.org/california/san-jose/5669-Hacienda-Science-Environmental-Magnet-School/?s_cid=gsapi,4,(408) 535-6259,https://www.greatschools.org/school/rating.page?state=CA&id=5669&s_cid=gsapi,https://www.greatschools.org/school/parentReviews.page?state=CA&id=5669&s_cid=gsapi,https://www.greatschools.org/modperl/achievement/CA/5669,CA,public,
60,"1610 Bird Avenue, 
San Jose, CA  95125",San Jose,San Jose Unified School District,655,0634590,326,,K-5,11157,8,37.303505,-121.88689,Hammer Montessori At Galarza Elementary School,063459007429,https://www.greatschools.org/california/san-jose/11157-Hammer-Montessori-At-Galarza-Elementary-School/?s_cid=gsapi,4,(408) 535-6671,https://www.greatschools.org/school/rating.page?state=CA&id=11157&s_cid=gsapi,https://www.greatschools.org/school/parentReviews.page?state=CA&id=11157&s_cid=gsapi,https://www.greatschools.org/modperl/achievement/CA/11157,CA,public,http://hammer.ca.campusgrid.net/home
61,"5035 Poston Drive, 
San Jose, CA  95136",San Jose,Oak Grove Elementary School District,650,0627810,517,(408) 224-7191,K-6,5592,6,37.261795,-121.82648,Hayes Elementary School,062781004215,https://www.greatschools.org/california/san-jose/5592-Hayes-Elementary-School/?s_cid=gsapi,4,(408) 227-0424,https://www.greatschools.org/school/rating.page?state=CA&id=5592&s_cid=gsapi,https://www.greatschools.org/school/parentReviews.page?state=CA&id=5592&s_cid=gsapi,https://www.greatschools.org/modperl/achievement/CA/5592,CA,public,http://www.HayesSchool.org
62,"1635 Park Avenue, 
San Jose, CA  95126",San Jose,San Jose Unified School District,655,0634590,1074,(408) 286-4864,6-8,5672,3,37.332455,-121.92229,Herbert Hoover Middle School,063459005720,https://www.greatschools.org/california/san-jose/5672-Herbert-Hoover-Middle-School/?s_cid=gsapi,3,(408) 535-6274,https://www.greatschools.org/school/rating.page?state=CA&id=5672&s_cid=gsapi,https://www.greatschools.org/school/parentReviews.page?state=CA&id=5672&s_cid=gsapi,https://www.greatschools.org/modperl/achievement/CA/5672,CA,public,http://sjusd.org/hoover/
63,"5955 Blossom Avenue, 
San Jose, CA  95123",San Jose,Oak Grove Elementary School District,650,0627810,822,(408) 226-1897,5-8,5593,8,37.23974,-121.83972,Herman (Leonard) Intermediate School,062781004216,https://www.greatschools.org/california/san-jose/5593-Herman-(Leonard)-Intermediate-School/?s_cid=gsapi,4,(408) 226-1886,https://www.greatschools.org/school/rating.page?state=CA&id=5593&s_cid=gsapi,https://www.greatschools.org/school/parentReviews.page?state=CA&id=5593&s_cid=gsapi,https://www.greatschools.org/modperl/achievement/CA/5593,CA,public,http://www.davisschool.org/herman
64,"2995 Rossmore Way, 
San Jose, CA  95148",San Jose,Evergreen Elementary,633,0613140,655,(408) 223-4513,K-6,5472,5,37.318756,-121.79762,Holly Oak Elementary School,061314001494,https://www.greatschools.org/california/san-jose/5472-Holly-Oak-Elementary-School/?s_cid=gsapi,3,(408) 270-4975,https://www.greatschools.org/school/rating.page?state=CA&id=5472&s_cid=gsapi,https://www.greatschools.org/school/parentReviews.page?state=CA&id=5472&s_cid=gsapi,https://www.greatschools.org/modperl/achievement/CA/5472,CA,public,http://hollyoak.eesd.org/
65,"3720 East Hills Drive, 
San Jose, CA  95127",San Jose,Alum Rock Union Elementary School District,625,0602310,527,(408) 928-7351,K-5,5370,4,37.369373,-121.81424,Horace Cureton Elementary School,060231000102,https://www.greatschools.org/california/san-jose/5370-Horace-Cureton-Elementary-School/?s_cid=gsapi,4,(408) 928-7350,https://www.greatschools.org/school/rating.page?state=CA&id=5370&s_cid=gsapi,https://www.greatschools.org/school/parentReviews.page?state=CA&id=5370&s_cid=gsapi,https://www.greatschools.org/modperl/achievement/CA/5370,CA,public,http://www.arusd.org/
66,"55 North Seventh Street, 
San Jose, CA  95112",San Jose,San Jose Unified School District,655,0634590,516,(408) 535-2315,K-5,5678,3,37.339996,-121.88483,Horace Mann Elementary School,063459005722,https://www.greatschools.org/california/san-jose/5678-Horace-Mann-Elementary-School/?s_cid=gsapi,4,(408) 535-6237,https://www.greatschools.org/school/rating.page?state=CA&id=5678&s_cid=gsapi,https://www.greatschools.org/school/parentReviews.page?state=CA&id=5678&s_cid=gsapi,https://www.greatschools.org/modperl/achievement/CA/5678,CA,public,http://www.sjusd.org/horace-mann/
67,"1776 Educational Park Drive, 
San Jose, CA  95133",San Jose,East Side Union High,632,0611820,3118,(408) 928-9515,9-12,5456,7,37.36778,-121.85963,Independence High School,061182001302,https://www.greatschools.org/california/san-jose/5456-Independence-High-School/?s_cid=gsapi,4,(408) 928-9500,https://www.greatschools.org/school/rating.page?state=CA&id=5456&s_cid=gsapi,https://www.greatschools.org/school/parentReviews.page?state=CA&id=5456&s_cid=gsapi,https://www.greatschools.org/modperl/achievement/CA/5456,CA,public,http://ih.esuhsd.org
68,"2220 Woodbury Lane, 
San Jose, CA  95121",San Jose,Evergreen Elementary,633,0613140,798,(408) 532-2165,K-6,11864,9,37.29739,-121.78801,James Franklin Smith Elementary School,061314008631,https://www.greatschools.org/california/san-jose/11864-James-Franklin-Smith-Elementary-School/?s_cid=gsapi,5,(408) 532-2150,https://www.greatschools.org/school/rating.page?state=CA&id=11864&s_cid=gsapi,https://www.greatschools.org/school/parentReviews.page?state=CA&id=11864&s_cid=gsapi,https://www.greatschools.org/modperl/achievement/CA/11864,CA,public,http://evergreen.eesd.org/page.cfm?p=3666
69,"57 North White Road, 
San Jose, CA  95127",San Jose,East Side Union High,632,0611820,1108,(408) 347-4415,9-12,5457,5,37.368057,-121.83006,James Lick High School,061182001303,https://www.greatschools.org/california/san-jose/5457-James-Lick-High-School/?s_cid=gsapi,4,(408) 347-4400,https://www.greatschools.org/school/rating.page?state=CA&id=5457&s_cid=gsapi,https://www.greatschools.org/school/parentReviews.page?state=CA&id=5457&s_cid=gsapi,https://www.greatschools.org/modperl/achievement/CA/5457,CA,public,http://jl.ca.campusgrid.net/home
70,"1250 Taper Lane, 
San Jose, CA  95122",San Jose,Franklin-Mckinley Elementary School District,634,0614370,507,(408) 283-6061,K-6,5490,6,37.320984,-121.83961,Jeanne R. Meadows Elementary School,061437009827,https://www.greatschools.org/california/san-jose/5490-Jeanne-R.-Meadows-Elementary-School/?s_cid=gsapi,4,(408) 283-6300,https://www.greatschools.org/school/rating.page?state=CA&id=5490&s_cid=gsapi,https://www.greatschools.org/school/parentReviews.page?state=CA&id=5490&s_cid=gsapi,https://www.greatschools.org/modperl/achievement/CA/5490,CA,public,http://meadows.fmsd.org/
71,"6151 Rainbow Drive, 
San Jose, CA  95129",San Jose,Cupertino Union,631,0610290,1328,(408) 255-5269,6-8,5442,9,37.30249,-122.0121,Joaquin Miller Middle School,061029001142,https://www.greatschools.org/california/san-jose/5442-Joaquin-Miller-Middle-School/?s_cid=gsapi,4,(408) 252-3755,https://www.greatschools.org/school/rating.page?state=CA&id=5442&s_cid=gsapi,https://www.greatschools.org/school/parentReviews.page?state=CA&id=5442&s_cid=gsapi,https://www.greatschools.org/modperl/achievement/CA/5442,CA,public,http://teacherweb.com/CA/MillerMiddleSchool/MillerMustang/index.html
72,"2010 Daniel Maloney Drive, 
San Jose, CA  95121",San Jose,Evergreen Elementary,633,0613140,587,(408) 223-4848,K-6,5477,3,37.307755,-121.80109,John J. Montgomery Elementary School,061314001495,https://www.greatschools.org/california/san-jose/5477-John-J.-Montgomery-Elementary-School/?s_cid=gsapi,4,(408) 270-6718,https://www.greatschools.org/school/rating.page?state=CA&id=5477&s_cid=gsapi,https://www.greatschools.org/school/parentReviews.page?state=CA&id=5477&s_cid=gsapi,https://www.greatschools.org/modperl/achievement/CA/5477,CA,public,http://montgomery.eesd.org/
73,"6560 Hanover Drive, 
San Jose, CA  95129",San Jose,Cupertino Union,631,0610290,443,(408) 253-3116,K-5,5444,9,37.299118,-122.01933,John Muir Elementary School,061029001144,https://www.greatschools.org/california/san-jose/5444-John-Muir-Elementary-School/?s_cid=gsapi,4,(408) 252-5265,https://www.greatschools.org/school/rating.page?state=CA&id=5444&s_cid=gsapi,https://www.greatschools.org/school/parentReviews.page?state=CA&id=5444&s_cid=gsapi,https://www.greatschools.org/modperl/achievement/CA/5444,CA,public,http://www.edline.net/pages/Muir_Elementary_School
74,"1260 Branham Lane, 
San Jose, CA  95118",San Jose,San Jose Unified School District,655,0634590,1118,(408) 535-2319,6-8,5679,5,37.261417,-121.88238,John Muir Middle School,063459005723,https://www.greatschools.org/california/san-jose/5679-John-Muir-Middle-School/?s_cid=gsapi,3,(408) 535-6281,https://www.greatschools.org/school/rating.page?state=CA&id=5679&s_cid=gsapi,https://www.greatschools.org/school/parentReviews.page?state=CA&id=5679&s_cid=gsapi,https://www.greatschools.org/modperl/achievement/CA/5679,CA,public,http://www.sjusd.k12.ca.us/sites/mid/Hoover
75,"277 Mahoney Drive, 
San Jose, CA  95127",San Jose,Alum Rock Union Elementary School District,625,0602310,594,(408) 928-7601,6-8,5373,4,37.371185,-121.81425,Joseph George Middle School,060231000105,https://www.greatschools.org/california/san-jose/5373-Joseph-George-Middle-School/?s_cid=gsapi,3,(408) 928-7600,https://www.greatschools.org/school/rating.page?state=CA&id=5373&s_cid=gsapi,https://www.greatschools.org/school/parentReviews.page?state=CA&id=5373&s_cid=gsapi,https://www.greatschools.org/modperl/achievement/CA/5373,CA,public,http://www.arusd.org/georgems
76,"2025 Clarice Drive, 
San Jose, CA  95122",San Jose,Evergreen Elementary,633,0613140,658,(408) 270-6877,K-6,5481,1,37.32623,-121.82204,Katherine R. Smith Elementary School,061314001496,https://www.greatschools.org/california/san-jose/5481-Katherine-R.-Smith-Elementary-School/?s_cid=gsapi,5,(408) 270-6751,https://www.greatschools.org/school/rating.page?state=CA&id=5481&s_cid=gsapi,https://www.greatschools.org/school/parentReviews.page?state=CA&id=5481&s_cid=gsapi,https://www.greatschools.org/modperl/achievement/CA/5481,CA,public,www.krs.schoolloop.com
77,"2095 Warmwood Lane, 
San Jose, CA  95132",San Jose,Berryessa Union Elementary,626,0604800,435,(408) 262-5804,K-5,5394,7,37.413845,-121.87177,Laneview Elementary School,060480000459,https://www.greatschools.org/california/san-jose/5394-Laneview-Elementary-School/?s_cid=gsapi,4,(408) 923-1920,https://www.greatschools.org/school/rating.page?state=CA&id=5394&s_cid=gsapi,https://www.greatschools.org/school/parentReviews.page?state=CA&id=5394&s_cid=gsapi,https://www.greatschools.org/modperl/achievement/CA/5394,CA,public,http://laneview.berryessa.k12.ca.us/
78,"4250 Latimer Avenue, 
San Jose, CA  95130",San Jose,Moreland School District,646,0625770,340,(408) 379-2436,PK-5,31680,6,37.292393,-121.978035,Latimer Elementary School,062577013806,https://www.greatschools.org/california/san-jose/31680-Latimer-Elementary-School/?s_cid=gsapi,,(408) 874-3600,https://www.greatschools.org/school/rating.page?state=CA&id=31680&s_cid=gsapi,https://www.greatschools.org/school/parentReviews.page?state=CA&id=31680&s_cid=gsapi,https://www.greatschools.org/modperl/achievement/CA/31680,CA,public,LatimerElementary.org
79,"4280 Partridge Drive, 
San Jose, CA  95121",San Jose,Evergreen Elementary,633,0613140,369,(408) 270-6922,K-6,5473,6,37.302494,-121.78007,Laurelwood Elementary School,061314001497,https://www.greatschools.org/california/san-jose/5473-Laurelwood-Elementary-School/?s_cid=gsapi,3,(408) 270-4983,https://www.greatschools.org/school/rating.page?state=CA&id=5473&s_cid=gsapi,https://www.greatschools.org/school/parentReviews.page?state=CA&id=5473&s_cid=gsapi,https://www.greatschools.org/modperl/achievement/CA/5473,CA,public,http://www.do.esd.k12.ca.us/laurelwood/laurelwood.html
80,"1711 East San Antonio St, 
San Jose, CA  95116",San Jose,Alum Rock Union Elementary School District,625,0602310,243,(408) 928-8301,K-5,14481,5,37.338257,-121.84004,Learning In An Urban Community With High Achievement (L.U.C.H.A.),060231011445,https://www.greatschools.org/california/san-jose/14481-Learning-In-An-Urban-Community-With-High-Achievement-(L.U.C.H.A.)/?s_cid=gsapi,5,(408) 928-8300,https://www.greatschools.org/school/rating.page?state=CA&id=14481&s_cid=gsapi,https://www.greatschools.org/school/parentReviews.page?state=CA&id=14481&s_cid=gsapi,https://www.greatschools.org/modperl/achievement/CA/14481,CA,public,
81,"1001 Schoolhouse Road, 
San Jose, CA  95138",San Jose,Oak Grove Elementary School District,650,0627810,490,(408) 224-1146,K-6,11155,7,37.242985,-121.76204,Ledesma (Rita) Elementary School,062781008358,https://www.greatschools.org/california/san-jose/11155-Ledesma-(Rita)-Elementary-School/?s_cid=gsapi,4,(408) 224-2191,https://www.greatschools.org/school/rating.page?state=CA&id=11155&s_cid=gsapi,https://www.greatschools.org/school/parentReviews.page?state=CA&id=11155&s_cid=gsapi,https://www.greatschools.org/modperl/achievement/CA/11155,CA,public,http://ledesma.ogsd.net/
82,"2050 Kammerer Avenue, 
San Jose, CA  95116",San Jose,Alum Rock Union Elementary School District,625,0602310,403,(408) 928-7951,6-8,5378,2,37.35084,-121.84411,Lee Mathson Middle School,060231000110,https://www.greatschools.org/california/san-jose/5378-Lee-Mathson-Middle-School/?s_cid=gsapi,4,(408) 928-7950,https://www.greatschools.org/school/rating.page?state=CA&id=5378&s_cid=gsapi,https://www.greatschools.org/school/parentReviews.page?state=CA&id=5378&s_cid=gsapi,https://www.greatschools.org/modperl/achievement/CA/5378,CA,public,
83,"5210 Leigh Avenue, 
San Jose, CA  95124",San Jose,Campbell Union High,630,0607230,1665,(408) 265-7525,9-12,5425,9,37.24331,-121.92262,Leigh High School,060723008122,https://www.greatschools.org/california/san-jose/5425-Leigh-High-School/?s_cid=gsapi,3,(408) 626-3405,https://www.greatschools.org/school/rating.page?state=CA&id=5425&s_cid=gsapi,https://www.greatschools.org/school/parentReviews.page?state=CA&id=5425&s_cid=gsapi,https://www.greatschools.org/modperl/achievement/CA/5425,CA,public,http://www.leigh.cuhsd.org
84,"6677 Camden Avenue, 
San Jose, CA  95120",San Jose,San Jose Unified School District,655,0634590,1784,(408) 927-6448,9-12,5673,10,37.22036,-121.84737,Leland High School,063459005725,https://www.greatschools.org/california/san-jose/5673-Leland-High-School/?s_cid=gsapi,3,(408) 535-6290,https://www.greatschools.org/school/rating.page?state=CA&id=5673&s_cid=gsapi,https://www.greatschools.org/school/parentReviews.page?state=CA&id=5673&s_cid=gsapi,https://www.greatschools.org/modperl/achievement/CA/5673,CA,public,http://leland.sjusd.org/
85,"4000 Rhoda Drive, 
San Jose, CA  95117",San Jose,Moreland School District,646,0625770,492,(408) 243-4312,K-5,5560,4,37.303642,-121.9715,Leroy Anderson Elementary School,062577003860,https://www.greatschools.org/california/san-jose/5560-Leroy-Anderson-Elementary-School/?s_cid=gsapi,4,(408) 874-3100,https://www.greatschools.org/school/rating.page?state=CA&id=5560&s_cid=gsapi,https://www.greatschools.org/school/parentReviews.page?state=CA&id=5560&s_cid=gsapi,https://www.greatschools.org/modperl/achievement/CA/5560,CA,public,http://anderson-moreland-ca.schoolloop.com/
86,"5300 Carter Avenue, 
San Jose, CA  95118",San Jose,Union Elementary,657,0640320,545,(408) 264-9615,K-5,5715,8,37.243076,-121.903,Lietz Elementary School,064032006674,https://www.greatschools.org/california/san-jose/5715-Lietz-Elementary-School/?s_cid=gsapi,5,(408) 264-8314,https://www.greatschools.org/school/rating.page?state=CA&id=5715&s_cid=gsapi,https://www.greatschools.org/school/parentReviews.page?state=CA&id=5715&s_cid=gsapi,https://www.greatschools.org/modperl/achievement/CA/5715,CA,public,http://www.unionsd.k12.ca.us/lietz
87,"100 Kirk Avenue, 
San Jose, CA  95127",San Jose,Alum Rock Union Elementary School District,625,0602310,658,(408) 928-7801,K-5,5376,5,37.376907,-121.82373,Linda Vista Elementary School,060231000108,https://www.greatschools.org/california/san-jose/5376-Linda-Vista-Elementary-School/?s_cid=gsapi,3,(408) 928-7800,https://www.greatschools.org/school/rating.page?state=CA&id=5376&s_cid=gsapi,https://www.greatschools.org/school/parentReviews.page?state=CA&id=5376&s_cid=gsapi,https://www.greatschools.org/modperl/achievement/CA/5376,CA,public,http://www.arusd.org/Domain/499
88,"6130 Silberman Avenue, 
San Jose, CA  95120",San Jose,San Jose Unified School District,655,0634590,722,,K-5,5676,9,37.22786,-121.88103,Los Alamitos Elementary School,063459005727,https://www.greatschools.org/california/san-jose/5676-Los-Alamitos-Elementary-School/?s_cid=gsapi,5,(408) 535-6297,https://www.greatschools.org/school/rating.page?state=CA&id=5676&s_cid=gsapi,https://www.greatschools.org/school/parentReviews.page?state=CA&id=5676&s_cid=gsapi,https://www.greatschools.org/modperl/achievement/CA/5676,CA,public,http://www.losalamitos.org
89,"455 Los Arboles Street, 
San Jose, CA  95111",San Jose,Franklin-Mckinley Elementary School District,634,0614370,489,(408) 363-5641,K-3,5488,2,37.286404,-121.83169,Los Arboles Elementary School,061437001648,https://www.greatschools.org/california/san-jose/5488-Los-Arboles-Elementary-School/?s_cid=gsapi,4,(408) 363-5675,https://www.greatschools.org/school/rating.page?state=CA&id=5488&s_cid=gsapi,https://www.greatschools.org/school/parentReviews.page?state=CA&id=5488&s_cid=gsapi,https://www.greatschools.org/modperl/achievement/CA/5488,CA,public,http://www.los_arboles.fmsd.k12.ca.us/
90,"121 Avenida Grande, 
San Jose, CA  95139",San Jose,Morgan Hill Unified,643,0625830,586,(408) 281-4021,K-6,5540,6,37.228962,-121.76737,Los Paseos Elementary School,062583003878,https://www.greatschools.org/california/san-jose/5540-Los-Paseos-Elementary-School/?s_cid=gsapi,4,(408) 201-6420,https://www.greatschools.org/school/rating.page?state=CA&id=5540&s_cid=gsapi,https://www.greatschools.org/school/parentReviews.page?state=CA&id=5540&s_cid=gsapi,https://www.greatschools.org/modperl/achievement/CA/5540,CA,public,http://www.mhu.k12.ca.us/~lospaseo
91,"625 South Seventh Street, 
San Jose, CA  95112",San Jose,San Jose Unified School District,655,0634590,409,(408) 298-3708,K-5,5677,3,37.3297,-121.87715,Lowell Elementary School,063459005728,https://www.greatschools.org/california/san-jose/5677-Lowell-Elementary-School/?s_cid=gsapi,3,(408) 535-6243,https://www.greatschools.org/school/rating.page?state=CA&id=5677&s_cid=gsapi,https://www.greatschools.org/school/parentReviews.page?state=CA&id=5677&s_cid=gsapi,https://www.greatschools.org/modperl/achievement/CA/5677,CA,public,
92,"4 Wabash Avenue, 
San Jose, CA  95128",San Jose,Luther Burbank,642,0623130,552,(408) 295-3168,K-8,5532,4,37.323555,-121.92673,Luther Burbank Elementary School,062313003530,https://www.greatschools.org/california/san-jose/5532-Luther-Burbank-Elementary-School/?s_cid=gsapi,4,(408) 295-1814,https://www.greatschools.org/school/rating.page?state=CA&id=5532&s_cid=gsapi,https://www.greatschools.org/school/parentReviews.page?state=CA&id=5532&s_cid=gsapi,https://www.greatschools.org/modperl/achievement/CA/5532,CA,public,http://www.lbsd.k12.ca.us
93,"1280 Johnson Avenue, 
San Jose, CA  95129",San Jose,Fremont Union High School District,635,0614430,1853,(408) 257-0551,9-12,5499,10,37.300724,-122.0065,Lynbrook High School,061443001698,https://www.greatschools.org/california/san-jose/5499-Lynbrook-High-School/?s_cid=gsapi,4,(408) 366-7700,https://www.greatschools.org/school/rating.page?state=CA&id=5499&s_cid=gsapi,https://www.greatschools.org/school/parentReviews.page?state=CA&id=5499&s_cid=gsapi,https://www.greatschools.org/modperl/achievement/CA/5499,CA,public,http://www.lhs.fuhsd.org
94,"13901 Nordyke Drive, 
San Jose, CA  95127",San Jose,Alum Rock Union Elementary School District,625,0602310,477,(408) 928-7901,K-5,5377,5,37.359768,-121.82495,Lyndale Elementary School,060231000109,https://www.greatschools.org/california/san-jose/5377-Lyndale-Elementary-School/?s_cid=gsapi,3,(408) 928-7900,https://www.greatschools.org/school/rating.page?state=CA&id=5377&s_cid=gsapi,https://www.greatschools.org/school/parentReviews.page?state=CA&id=5377&s_cid=gsapi,https://www.greatschools.org/modperl/achievement/CA/5377,CA,public,
95,"1855 Majestic Way, 
San Jose, CA  95132",San Jose,Berryessa Union Elementary,626,0604800,553,(408) 254-1315,K-5,5395,7,37.410656,-121.8572,Majestic Way Elementary School,060480000460,https://www.greatschools.org/california/san-jose/5395-Majestic-Way-Elementary-School/?s_cid=gsapi,4,(408) 923-1925,https://www.greatschools.org/school/rating.page?state=CA&id=5395&s_cid=gsapi,https://www.greatschools.org/school/parentReviews.page?state=CA&id=5395&s_cid=gsapi,https://www.greatschools.org/modperl/achievement/CA/5395,CA,public,http://majestic.berryessa.k12.ca.us/
96,"5050 Moorpark Avenue, 
San Jose, CA  95129",San Jose,Cupertino Union,631,0610290,510,(408) 253-4962,K-5,5431,6,37.310646,-121.990036,Manuel De Vargas Elementary School,061029001128,https://www.greatschools.org/california/san-jose/5431-Manuel-De-Vargas-Elementary-School/?s_cid=gsapi,4,(408) 252-0303,https://www.greatschools.org/school/rating.page?state=CA&id=5431&s_cid=gsapi,https://www.greatschools.org/school/parentReviews.page?state=CA&id=5431&s_cid=gsapi,https://www.greatschools.org/modperl/achievement/CA/5431,CA,public,
97,"141 Avenida Espana, 
San Jose, CA  95139",San Jose,Morgan Hill Unified,643,0625830,479,(408) 281-0312,7-8,5541,6,37.225574,-121.7669,Martin Murphy Middle School,062583003880,https://www.greatschools.org/california/san-jose/5541-Martin-Murphy-Middle-School/?s_cid=gsapi,3,(408) 201-6260,https://www.greatschools.org/school/rating.page?state=CA&id=5541&s_cid=gsapi,https://www.greatschools.org/school/parentReviews.page?state=CA&id=5541&s_cid=gsapi,https://www.greatschools.org/modperl/achievement/CA/5541,CA,public,http://www.mhu.k12.ca.us/~murphy/
